SAR-LUPE 2              
1 31797U 07030A   26144.95090906  .00008759  00000+0  17755-3 0  9998
2 31797  98.1011 246.5800 0012460 185.8914 174.2189 15.46601385 53349
SAPPHIRE                
1 39088U 13009C   26144.94674828  .00000078  00000+0  42419-4 0  9994
2 39088  98.4257 324.9554 0010409 323.3810  36.6663 14.35233244693246
PRAETORIAN SDA_602      
1 65565U 25203A   26144.96801609  .00000091  00000+0  70776-4 0  9995
2 65565  81.3048  32.2772 0004922 256.2325 103.8284 13.84340599 35480
PRAETORIAN SDA_603      
1 65566U 25203B   26144.91506267  .00000178  00000+0  15008-3 0  9995
2 65566  81.3052  32.2261 0008518 256.2730 103.7478 13.83903064 35489
PRAETORIAN SDA_604      
1 65567U 25203C   26144.92035536  .00000112  00000+0  92078-4 0  9994
2 65567  81.3070  32.5978 0004550 265.8344  94.2292 13.83043460 35468
PRAETORIAN SDA_605      
1 65568U 25203D   26144.96451340  .00000076  00000+0  58646-4 0  9996
2 65568  81.3035  32.2429 0007208 252.1431 107.8939 13.83431290 35480
PRAETORIAN SDA_606      
1 65569U 25203E   26144.94660953  .00000066  00000+0  49613-4 0  9990
2 65569  81.3072  32.4711 0004829 252.5860 107.4768 13.83404067 35471
PRAETORIAN SDA_607      
1 65570U 25203F   26144.96935568  .00000181  00000+0  15148-3 0  9994
2 65570  81.3059  32.1488 0007799 256.8546 103.1740 13.84282009 35499
PRAETORIAN SDA_608      
1 65571U 25203G   26144.93891968  .00000089  00000+0  69468-4 0  9999
2 65571  81.3024  32.3298 0005021 263.8699  96.1886 13.83813603 35475
PRAETORIAN SDA_609      
1 65572U 25203H   26144.95139231  .00000167  00000+0  13915-3 0  9992
2 65572  81.3069  32.3073 0005887 255.2753 104.7752 13.84281859 35484
PRAETORIAN SDA_610      
1 65573U 25203J   26143.61778623 -.00000032  00000+0 -39073-4 0  9996
2 65573  81.3017  33.5115 0005556 263.8511  96.2012 13.83916437 35297
PRAETORIAN SDA_611      
1 65574U 25203K   26144.98325523  .00000050  00000+0  34612-4 0  9997
2 65574  81.3029  32.3939 0004690 269.2048  90.8571 13.83306308 35475
PRAETORIAN SDA_612      
1 65575U 25203L   26144.92957381  .00000185  00000+0  15332-3 0  9991
2 65575  81.3050  32.0877 0008299 256.0364 103.9870 13.85034909 35499
PRAETORIAN SDA_613      
1 65576U 25203M   26143.02718094 -.00000147  00000+0 -14623-3 0  9990
2 65576  81.3009  34.1803 0004751 263.8752  96.1863 13.82825318 35205
PRAETORIAN SDA_614      
1 65577U 25203N   26144.91438485  .00000071  00000+0  52247-4 0  9992
2 65577  81.3031  32.1735 0006156 254.2691 105.7787 13.84775375 35492
PRAETORIAN SDA_615      
1 65578U 25203P   26144.95779136  .00000190  00000+0  15921-3 0  9997
2 65578  81.3043  32.0825 0008068 254.3535 105.6732 13.84432660 35493
PRAETORIAN SDA_616      
1 65579U 25203Q   26144.98176922  .00000162  00000+0  13697-3 0  9992
2 65579  81.3082  32.5252 0004633 267.2616  92.8010 13.83264121 35471
PRAETORIAN SDA_617      
1 65580U 25203R   26144.92906784  .00000092  00000+0  73016-4 0  9999
2 65580  81.3054  32.4074 0006413 254.4806 105.5642 13.83147938 35479
PRAETORIAN SDA_618      
1 65581U 25203S   26144.78368466  .00000283  00000+0  24081-3 0  9992
2 65581  81.3039  32.1835 0008790 256.2540 103.7638 13.84772284 35474
PRAETORIAN SDA_619      
1 65582U 25203T   26144.94979434  .00000121  00000+0  98241-4 0  9995
2 65582  81.3066  32.2894 0007178 253.9497 106.0869 13.83940063 36110
PRAETORIAN SDA_620      
1 65583U 25203U   26144.97403788  .00000109  00000+0  88340-4 0  9998
2 65583  81.3051  32.2834 0006615 250.8156 109.2285 13.83615598 35480
PRAETORIAN SDA_621      
1 65584U 25203V   26144.80628256  .00000088  00000+0  68944-4 0  9994
2 65584  81.3038  32.3657 0006413 248.5300 111.5173 13.83797593 35467
PRAETORIAN SDA_601      
1 65585U 25203W   26144.98380509  .00000174  00000+0  14794-3 0  9999
2 65585  81.3059  32.4721 0004555 269.3077  90.7557 13.83269854 35470
